ORBCOMM FM37            
1 33064U 08031E   24140.14919719  .00005314  00000+0  78338-3 0  9994
2 33064  48.4406  52.2959 0005636 131.0376  11.3565 14.76502646856075
ORBCOMM FM40            
1 33065U 08031F   24139.86270889  .00006645  00000+0  94235-3 0  9992
2 33065  48.4432  42.9439 0007036 138.5919 339.2280 14.77831030855758
VESSELSAT 1             
1 37840U 11058C   24140.12810992  .00000576  00000+0  17023-3 0  9993
2 37840  19.9636 317.9820 0013665 172.2601 187.8015 14.11156381650808
ORBCOMM FM109           
1 40086U 14040A   24139.87534203  .00002968  00000+0  69583-3 0  9996
2 40086  47.0029  76.4823 0002555 301.2744  58.7891 14.56640590523547
ORBCOMM FM107           
1 40087U 14040B   24139.90953229  .00003017  00000+0  70673-3 0  9992
2 40087  47.0047  77.2878 0002028 276.0939  83.9715 14.56651546523624
ORBCOMM FM106           
1 40088U 14040C   24139.70546618  .00003976  00000+0  73192-3 0  9994
2 40088  47.0598 290.7778 0017132  33.8423 326.3557 14.67076081525500
ORBCOMM FM111           
1 40089U 14040D   24139.85546283  .00004456  00000+0  57848-3 0  9993
2 40089  47.0027 190.0834 0031763 109.5462 250.8868 14.81865850531658
ORBCOMM FM104           
1 40090U 14040E   24140.16366239  .00002119  00000+0  52322-3 0  9998
2 40090  47.0036 105.0984 0017110 208.0694 151.9269 14.55159294523302
